2022-023A               
1 51946U 22023A   26066.38437076  .00004303  00000+0  19500-3 0  9999
2 51946  63.4765 256.0240 0098533 341.4326  18.3199 15.18202647222269
STARLINK-3962           
1 52708U 22053BE  26068.50538800 -.00001870  00000+0 -99454-4 0  9997
2 52708  53.2174 134.9364 0001831 105.0898 255.0297 15.08836986211491
